NORAD_CAT_ID,OBJECT_NAME,OBJECT_TYPE,EPOCH,MEAN_MOTION,ECCENTRICITY,INCLINATION,RA_OF_ASC_NODE,ARG_OF_PERICENTER,MEAN_ANOMALY,BSTAR,MEAN_MOTION_DOT,MEAN_MOTION_DDOT,TLE_LINE0,TLE_LINE1,TLE_LINE2,SEMIMAJOR_AXIS,PERIOD,APOGEE,PERIGEE,DECAYED
56471.0,STARLINK-5521,PAYLOAD,2023-11-25 13:37:30,14.98330799,0.0002661,70.0009,70.1938,266.694,93.3915,0.00017668,2.016e-05,0.0,0 STARLINK-5521,1 56471U 23064Z   23329.56771002  .00002016  00000-0  17668-3 0  9995,2 56471  70.0009  70.1938 0002661 266.6940  93.3915 14.98330799 30643,6950.19,96.107,573.905,570.206,0.0
56471.0,STARLINK-5521,PAYLOAD,2023-11-25 16:49:45,14.98335945,0.0002293,70.0023,69.8577,246.4542,113.6376,0.00023089,2.663e-05,0.0,0 STARLINK-5521,1 56471U 23064Z   23329.70122431  .00002663  00000-0  23089-3 0  9999,2 56471  70.0023  69.8577 0002293 246.4542 113.6376 14.98335945 30665,6950.175,96.107,573.633,570.446,0.0
56471.0,STARLINK-5521,PAYLOAD,2023-11-26 13:39:30,14.98336112,0.0002638,70.0017,67.6706,248.1269,111.9609,0.00012713,1.424e-05,0.0,0 STARLINK-5521,1 56471U 23064Z   23330.56910252  .00001424  00000-0  12713-3 0  9997,2 56471  70.0017  67.6706 0002638 248.1269 111.9609 14.98336112 30797,6950.174,96.107,573.872,570.206,0.0
56471.0,STARLINK-5521,PAYLOAD,2023-11-26 16:51:46,14.98338695,0.0002674,70.0014,67.3334,253.8231,106.2634,0.00014323,1.617e-05,0.0,0 STARLINK-5521,1 56471U 23064Z   23330.70261990  .00001617  00000-0  14323-3 0  9994,2 56471  70.0014  67.3334 0002674 253.8231 106.2634 14.98338695 31176,6950.166,96.106,573.889,570.173,0.0
56471.0,STARLINK-5521,PAYLOAD,2023-11-27 12:05:25,14.98314459,0.0003161,70.0001,65.3115,273.9574,86.1223,-0.00030441,-3.722e-05,0.0,0 STARLINK-5521,1 56471U 23064Z   23331.50377081 -.00003722  00000-0 -30441-3 0  9992,2 56471  70.0001  65.3115 0003161 273.9574  86.1223 14.98314459 31297,6950.241,96.108,574.303,569.909,0.0
56471.0,STARLINK-5521,PAYLOAD,2023-11-27 13:41:34,14.98309303,0.0002276,70.0023,65.1449,249.1358,110.9557,-0.00033473,-4.082e-05,0.0,0 STARLINK-5521,1 56471U 23064Z   23331.57053534 -.00004082  00000-0 -33473-3 0  9991,2 56471  70.0023  65.1449 0002276 249.1358 110.9557 14.98309303 30949,6950.257,96.108,573.704,570.54,0.0
56471.0,STARLINK-5521,PAYLOAD,2023-11-27 16:53:57,14.9821357,0.0002819,70.0015,64.8078,264.3278,95.7559,-0.0014083,-0.00016806,0.0,0 STARLINK-5521,1 56471U 23064Z   23331.70413805 -.00016806  00000-0 -14083-2 0  9999,2 56471  70.0015  64.8078 0002819 264.3278  95.7559 14.98213570 31322,6950.553,96.114,574.377,570.459,0.0
56471.0,STARLINK-5521,PAYLOAD,2023-11-28 10:33:17,14.96786043,0.0007257,70.0019,62.9616,122.1235,238.0629,-0.017605,-0.00196511,0.0,0 STARLINK-5521,1 56471U 23064Z   23332.43978770 -.00196511  00000-0 -17605-1 0  9991,2 56471  70.0019  62.9616 0007257 122.1235 238.0629 14.96786043 31438,6954.972,96.206,581.884,571.789,0.0
56471.0,STARLINK-5521,PAYLOAD,2023-11-28 20:00:01,14.98339735,0.0003221,70.0021,61.96,277.8894,51.9796,-0.0050764,-0.00060163,0.0,0 STARLINK-5521,1 56471U 23064Z   23332.83334491 -.00060163  00000-0 -50764-2 0  9998,2 56471  70.0021  61.9600 0003221 277.8894  51.9796 14.98339735 31496,6950.163,96.106,574.266,569.789,0.0
56471.0,STARLINK-5521,PAYLOAD,2023-11-29 00:00:02,14.98292977,0.0003199,70.0023,61.5398,273.3386,235.3387,0.0022553,0.00026895,0.0,0 STARLINK-5521,1 56471U 23064Z   23333.00002315  .00026895  00000-0  22553-2 0  9992,2 56471  70.0023  61.5398 0003199 273.3386 235.3387 14.98292977 31512,6950.307,96.109,574.396,569.949,0.0
56471.0,STARLINK-5521,PAYLOAD,2023-11-29 12:11:12,14.96986185,0.0004458,70.0014,60.2677,124.0388,236.1194,-0.015267,-0.00171827,0.0,0 STARLINK-5521,1 56471U 23064Z   23333.50778587 -.00171827  00000-0 -15267-1 0  9999,2 56471  70.0014  60.2677 0004458 124.0388 236.1194 14.96986185 31593,6954.352,96.193,579.317,573.116,0.0
56471.0,STARLINK-5521,PAYLOAD,2023-11-29 13:46:36,14.97553971,0.000126,70.0008,60.0968,171.1317,188.9864,-0.008256,-0.00095334,0.0,0 STARLINK-5521,1 56471U 23064Z   23333.57403741 -.00095334  00000-0 -82560-2 0  9992,2 56471  70.0008  60.0968 0001260 171.1317 188.9864 14.97553971 31244,6952.594,96.157,575.335,573.583,0.0
56471.0,STARLINK-5521,PAYLOAD,2023-11-29 22:00:00,14.98322349,0.0003222,70.002,59.2286,271.9112,139.7462,-0.0016842,-0.00020127,0.0,0 STARLINK-5521,1 56471U 23064Z   23333.91667824 -.00020127  00000-0 -16842-2 0  9992,2 56471  70.0020  59.2286 0003222 271.9112 139.7462 14.98322349 31650,6950.217,96.107,574.321,569.842,0.0
56471.0,STARLINK-5521,PAYLOAD,2023-11-30 00:00:02,14.98303006,0.0003259,70.0021,59.0185,269.6936,231.4045,0.0031899,0.0003815,0.0,0 STARLINK-5521,1 56471U 23064Z   23334.00002315  .00038150  00000-0  31899-2 0  9993,2 56471  70.0021  59.0185 0003259 269.6936 231.4045 14.98303006 31662,6950.276,96.109,574.406,569.876,0.0
56471.0,STARLINK-5521,PAYLOAD,2023-11-30 12:11:27,14.98335836,0.000283,70.001,57.7396,262.5551,97.5286,-0.0001363,-1.719e-05,0.0,0 STARLINK-5521,1 56471U 23064Z   23334.50795601 -.00001719  00000-0 -13630-3 0  9992,2 56471  70.0010  57.7396 0002830 262.5551  97.5286 14.98335836 31741,6950.175,96.107,574.007,570.073,0.0
56471.0,STARLINK-5521,PAYLOAD,2023-12-01 15:25:43,14.98330923,0.0002746,70.0017,54.8788,260.7882,99.2966,0.00013616,1.532e-05,0.0,0 STARLINK-5521,1 56471U 23064Z   23335.64287008  .00001532  00000-0  13616-3 0  9990,2 56471  70.0017  54.8788 0002746 260.7882  99.2966 14.98330923 31919,6950.19,96.107,573.964,570.147,0.0
56471.0,STARLINK-5521,PAYLOAD,2023-12-02 12:15:26,14.98377505,0.0001913,70.0016,52.6892,248.4377,111.6578,-0.00027435,-3.369e-05,0.0,0 STARLINK-5521,1 56471U 23064Z   23336.51072630 -.00003369  00000-0 -27435-3 0  9996,2 56471  70.0016  52.6892 0001913 248.4377 111.6578 14.98377505 32047,6950.046,96.104,573.241,570.581,0.0
56471.0,STARLINK-5521,PAYLOAD,2023-12-02 13:51:34,14.98393581,0.0002177,70.0017,52.5212,263.4715,96.6196,-0.00046802,-5.682e-05,0.0,0 STARLINK-5521,1 56471U 23064Z   23336.57747882 -.00005682  00000-0 -46802-3 0  9999,2 56471  70.0017  52.5212 0002177 263.4715  96.6196 14.98393581 31699,6949.996,96.103,573.374,570.348,0.0
56471.0,STARLINK-5521,PAYLOAD,2023-12-02 15:27:42,14.98390543,0.0002059,70.0017,52.3531,259.0671,101.0257,-0.00040607,-4.942e-05,0.0,0 STARLINK-5521,1 56471U 23064Z   23336.64423703 -.00004942  00000-0 -40607-3 0  9995,2 56471  70.0017  52.3531 0002059 259.0671 101.0257 14.98390543 32068,6950.006,96.103,573.302,570.44,0.0
56471.0,STARLINK-5521,PAYLOAD,2023-12-03 12:17:32,14.98304662,0.0003257,69.9994,50.1642,273.5182,86.5604,-0.00032397,-3.954e-05,0.0,0 STARLINK-5521,1 56471U 23064Z   23337.51217678 -.00003954  00000-0 -32397-3 0  9993,2 56471  69.9994  50.1642 0003257 273.5182  86.5604 14.98304662 32191,6950.271,96.109,574.4,569.873,0.0
56471.0,STARLINK-5521,PAYLOAD,2023-12-03 13:53:39,14.98342947,0.0002593,69.9993,49.9965,253.0229,107.0646,-0.00097494,-0.0001171,0.0,0 STARLINK-5521,1 56471U 23064Z   23337.57892916 -.00011710  00000-0 -97494-3 0  9991,2 56471  69.9993  49.9965 0002593 253.0229 107.0646 14.98342947 31845,6950.153,96.106,573.82,570.216,0.0
56471.0,STARLINK-5521,PAYLOAD,2023-12-03 15:29:47,14.98354463,0.0002647,69.9994,49.8283,253.3354,106.7515,-0.0011778,-0.00014127,0.0,0 STARLINK-5521,1 56471U 23064Z   23337.64568613 -.00014127  00000-0 -11778-2 0  9998,2 56471  69.9994  49.8283 0002647 253.3354 106.7515 14.98354463 32219,6950.117,96.105,573.822,570.143,0.0
56471.0,STARLINK-5521,PAYLOAD,2023-12-04 10:43:24,14.98322546,0.0002933,70.0006,47.8049,283.1847,76.8985,-0.00025816,-3.171e-05,0.0,0 STARLINK-5521,1 56471U 23064Z   23338.44681305 -.00003171  00000-0 -25816-3 0  9997,2 56471  70.0006  47.8049 0002933 283.1847  76.8985 14.98322546 32338,6950.216,96.107,574.119,570.042,0.0
56471.0,STARLINK-5521,PAYLOAD,2023-12-04 12:19:32,14.98325219,0.0002777,70.0009,47.637,281.9546,78.1302,-0.00022289,-2.751e-05,0.0,0 STARLINK-5521,1 56471U 23064Z   23338.51357062 -.00002751  00000-0 -22289-3 0  9999,2 56471  70.0009  47.6370 0002777 281.9546  78.1302 14.98325219 31982,6950.208,96.107,574.003,570.143,0.0
56471.0,STARLINK-5521,PAYLOAD,2023-12-04 15:31:47,14.98333321,0.0002768,70.0014,47.3035,262.8772,97.2073,-0.00013914,-1.753e-05,0.0,0 STARLINK-5521,1 56471U 23064Z   23338.64708180 -.00001753  00000-0 -13914-3 0  9990,2 56471  70.0014  47.3035 0002768 262.8772  97.2073 14.98333321 32365,6950.183,96.107,573.971,570.124,0.0
56471.0,STARLINK-5521,PAYLOAD,2023-12-05 12:21:32,14.98318458,0.0002347,70.0024,45.1159,264.0823,96.0068,0.00042907,5.029e-05,0.0,0 STARLINK-5521,1 56471U 23064Z   23339.51496147  .00005029  00000-0  42907-3 0  9996,2 56471  70.0024  45.1159 0002347 264.0823  96.0068 14.98318458 32133,6950.229,96.108,573.725,570.462,0.0
56471.0,STARLINK-5521,PAYLOAD,2023-12-06 04:22:52,14.98334565,0.0002386,70.0025,43.4332,263.5222,96.5665,0.00020911,2.403e-05,0.0,0 STARLINK-5521,1 56471U 23064Z   23340.18255713  .00002403  00000-0  20911-3 0  9997,2 56471  70.0025  43.4332 0002386 263.5222  96.5665 14.98334565 32593,6950.179,96.107,573.702,570.385,0.0
56471.0,STARLINK-5521,PAYLOAD,2023-12-06 12:23:33,14.98334353,0.0002552,70.0017,42.5902,268.8347,91.252,0.00013124,1.473e-05,0.0,0 STARLINK-5521,1 56471U 23064Z   23340.51635834  .00001473  00000-0  13124-3 0  9994,2 56471  70.0017  42.5902 0002552 268.8347  91.2520 14.98334353 32281,6950.179,96.107,573.818,570.271,0.0
56471.0,STARLINK-5521,PAYLOAD,2023-12-07 10:49:26,14.98338661,0.0002656,70.0015,40.2336,268.5771,91.5084,-8.906e-05,-1.156e-05,0.0,0 STARLINK-5521,1 56471U 23064Z   23341.45099577 -.00001156  00000-0 -89060-4 0  9999,2 56471  70.0015  40.2336 0002656 268.5771  91.5084 14.98338661 32787,6950.166,96.106,573.877,570.185,0.0
56471.0,STARLINK-5521,PAYLOAD,2023-12-07 12:25:34,14.98337532,0.0002759,70.0012,40.0649,271.7059,88.3784,-0.00010362,-1.329e-05,0.0,0 STARLINK-5521,1 56471U 23064Z   23341.51775664 -.00001329  00000-0 -10362-3 0  9994,2 56471  70.0012  40.0649 0002759 271.7059  88.3784 14.98337532 32437,6950.17,96.107,573.952,570.117,0.0
